GONETS-M 21             
1 47228U 20091B   24359.56287377  .00000015  00000+0  37230-4 0  9997
2 47228  82.4964 276.8758 0014236 296.4250  63.5368 12.42900984184031
GONETS-M 22             
1 47229U 20091C   24359.53771108  .00000022  00000+0  87835-4 0  9999
2 47229  82.5020 277.5388 0020867 274.4528  85.4167 12.42895215183987
CUBEL                   
1 47448U 21006AM  24359.57594128  .00011412  00000+0  43620-3 0  9996
2 47448  97.3169  46.8525 0007994 314.8293  45.2295 15.26736599217014
ASTROCAST-0103          
1 47487U 21006CC  24359.45802817  .00028295  00000+0  78507-3 0  9992
2 47487  97.3296  51.5135 0003945 318.8334  41.2612 15.36873561217279
ASTROCAST-0102          
1 47488U 21006CD  24359.25223949  .00209538  00000+0  21985-2 0  9992
2 47488  97.3112  53.5847 0005076 257.2673 102.8019 15.63680275217473
ASTROCAST-0104          
1 47519U 21006DK  24359.10870165  .00024687  00000+0  70555-3 0  9997
2 47519  97.3227  50.2515 0004494 296.3435  63.7348 15.35973559217204
ARKTIKA-M 1             
1 47719U 21016A   24346.21013880  .00000144  00000+0  00000+0 0  9997
2 47719  63.1345 131.0499 7012162 268.4789  17.4348  2.00604149 27701
STARLINK-2342           
1 47883U 21021Z   24359.55494857  .00023614  00000+0  15975-2 0  9990
2 47883  53.0540  92.4621 0001340  72.2886 287.8249 15.06431440209957
GRUS-1B                 
1 47934U 21022C   24359.54400227  .00003610  00000+0  30971-3 0  9993
2 47934  97.6053 247.6584 0017159 338.0453  22.0033 14.98002510205090
2021-022F               
1 47937U 21022F   24359.59282332  .00014239  00000+0  63591-3 0  9999
2 47937  97.4414 252.4955 0011490 191.2752 168.8228 15.21403421207349
CANYVAL-C (PUMBAA)      
1 47938U 21022G   24359.60474317  .00066454  00000+0  13869-2 0  9996
2 47938  97.4357 259.3937 0009057 155.2609 204.9076 15.45265006207837
WILDTRACKCUBE-SIMBA     
1 47941U 21022K   24359.55588803  .00032954  00000+0  10401-2 0  9997
2 47941  97.4400 255.7307 0011202 181.7763 178.3441 15.32721119207503
HIBER-3                 
1 47942U 21022L   24359.12745837  .00255066  00000+0  20066-2 0  9992
2 47942  97.4297 264.5606 0009162 116.4370 243.7833 15.70667763208081
ELSA-D                  
1 47944U 21022N   24359.31797082  .00071913  00000+0  17413-2 0  9993
2 47944  97.4439 260.5019 0009671 150.9357 209.2430 15.40794642207823
UNISAT-7                
1 47945U 21022P   24359.44640206  .00017693  00000+0  73476-3 0  9990
2 47945  97.4391 252.8867 0011834 186.3025 173.8065 15.23824535207214
2021-022Q               
1 47946U 21022Q   24359.58588672  .00042615  00000+0  11609-2 0  9995
2 47946  97.4414 258.7813 0010026 154.5237 205.6503 15.37315563207730
NANOSATC-BR2            
1 47950U 21022U   24359.49534572  .00485354  00000+0  22570-2 0  9990
2 47950  97.4229 265.9782 0009521 112.1708 248.0572 15.82084166208218
CUBESX-SIRIUS-HSE       
1 47951U 21022V   24359.54734791  .00066593  00000+0  14385-2 0  9997
2 47951  97.4393 259.3179 0009342 158.3559 201.8086 15.44244567207740
CUBESX-HSE              
1 47952U 21022W   24359.60409655  .00064508  00000+0  13784-2 0  9999
2 47952  97.4391 259.5289 0009438 157.2383 202.9286 15.44574354207768
2021-022X               
1 47953U 21022X   24359.56025970  .00026572  00000+0  94701-3 0  9997
2 47953  97.4377 253.5706 0011870 190.5855 169.5137 15.28826403207128
KSU-CUBESAT             
1 47954U 21022Y   24359.25511477  .00123928  00000+0  18263-2 0  9997
2 47954  97.4388 262.0772 0008575 137.9332 222.2582 15.54934179207616
CHALLENGE ONE           
1 47956U 21022AA  24359.24214487  .00087969  00000+0  16474-2 0  9995
2 47956  97.4387 259.9751 0008845 152.9560 207.2153 15.48331911207546
2021-022AC              
1 47958U 21022AC  24359.56566646  .00029159  00000+0  99045-3 0  9992
2 47958  97.4343 253.9555 0011660 187.5248 172.5820 15.30376927206240
GRBALPHA                
1 47959U 21022AD  24359.56264270  .00065589  00000+0  14037-2 0  9995
2 47959  97.4390 259.6540 0009272 157.3821 202.7838 15.44524817206588
ORBICRAFT-ZORKY         
1 47960U 21022AE  24359.58358117  .00095991  00000+0  16405-2 0  9994
2 47960  97.4409 262.0724 0008474 144.9195 215.2617 15.50913070207408
GLOBAL-9                
1 47971U 21023G   24359.42916730  .00035396  00000+0  92112-3 0  9994
2 47971  44.9890  14.8272 0011742 117.5866 242.6215 15.38290203211725
BEESAT-8                
1 48085U 21022AP  24359.28877157  .00313103  00000+0  26043-2 0  9997
2 48085  97.4746 266.7089 0009736 112.0977 248.1319 15.69139609207224
AII-BRAVO               
1 48270U 21034C   24359.43117873  .00010276  00000+0  90685-3 0  9994
2 48270  97.6311  55.9081 0002347 256.6567 103.4393 14.96575677198683
TYVAK-182A              
1 48271U 21034D   24359.13642032  .00010481  00000+0  88734-3 0  9992
2 48271  97.6326  57.0816 0001344   1.3924 358.7302 14.98188284198734
CSS (TIANHE)            
1 48274U 21035A   24359.48182793  .00031586  00000+0  37686-3 0  9996
2 48274  41.4680   3.5117 0001972 253.3435 106.7187 15.60372935208855
TYVAK-0130              
1 48606U 21041BF  24359.35743705  .00020365  00000+0  10765-2 0  9995
2 48606  53.0342 352.3593 0009629 304.2288  55.7792 15.15441475198152
HAIYANG-2D              
1 48621U 21043A   24359.53957365  .00000011  00000+0  83793-4 0  9992
2 48621  65.9957 208.2358 0009843 258.5325 101.4638 13.83370384181942
2021-050D               
1 48843U 21050D   24359.54027857  .00014236  00000+0  61091-3 0  9991
2 48843  97.3867  75.0457 0006124 255.7934 104.2622 15.22807822196803
BRIK-II                 
1 48876U 21058F   24359.59906749  .00032334  00000+0  61294-3 0  9990
2 48876  60.6674  97.6622 0023458 116.0129 244.3390 15.47878818194408
TYVAK-0173              
1 48892U 21059P   24359.57460942  .00004758  00000+0  65866-3 0  9995
2 48892  95.9797 200.8784 0011606  61.2981 298.9400 14.78274772188412
TUBIN                   
1 48900U 21059X   24359.56911716  .00041434  00000+0  93018-3 0  9996
2 48900  97.6619 151.6999 0005464 128.4406 231.7332 15.43249235194143
MANDRAKE 2 ABLE         
1 48907U 21059AE  24359.40886309  .00021281  00000+0  67419-3 0  9999
2 48907  97.6671 147.6218 0007442 140.3569 219.8217 15.32730038193869
MANDRAKE 2 BAKER        
1 48908U 21059AF  24359.42362431  .00023532  00000+0  72622-3 0  9990
2 48908  97.6689 148.4163 0007020 126.3570 233.8320 15.33549051193905
PACE-1                  
1 48909U 21059AG  24359.35262897  .00028699  00000+0  80076-3 0  9999
2 48909  97.6580 148.0874 0006830 125.2488 234.9396 15.36684160193971
YAM-2                   
1 48911U 21059AJ  24359.43521931  .00053241  00000+0  97917-3 0  9991
2 48911  97.6614 155.1703 0005110 113.2689 246.9100 15.49025767194335
YAM-3                   
1 48915U 21059AN  24359.42569443  .00020240  00000+0  65382-3 0  9998
2 48915  97.6632 147.5989 0008358 125.8104 234.3915 15.32110011193881
FARADAY_PHOENIX         
1 48924U 21059AX  24359.38106456  .00023089  00000+0  67669-3 0  9998
2 48924  97.6660 150.7730 0012381 122.8383 237.4053 15.35134910194042
DEMO8 (TENZING)         
1 48951U 21059CA  24359.39586621  .00020027  00000+0  61653-3 0  9991
2 48951  97.6722 150.6234 0011578 133.2120 227.0090 15.33619998194016
ASTROCAST-0201          
1 48954U 21059CD  24359.40013212  .00030719  00000+0  73538-3 0  9991
2 48954  97.6442 152.2445 0008600 125.0208 235.1846 15.41360729194235
ASTROCAST-0203          
1 48955U 21059CE  24359.41786003  .00031254  00000+0  74763-3 0  9994
2 48955  97.6434 151.7920 0009667 121.4399 238.7793 15.41369764194232
ASTROCAST-0205          
1 48960U 21059CK  24359.37771400  .00029716  00000+0  71135-3 0  9990
2 48960  97.6423 152.0571 0009629  97.3611 262.8730 15.41358670194231
NAPA-2                  
1 48963U 21059CN  24359.57838280  .00026070  00000+0  75150-3 0  9996
2 48963  97.6592 147.4008 0008902 126.7477 233.4585 15.35668519193908
W-CUBE                  
1 48965U 21059CQ  24359.38203546  .00050896  00000+0  10359-2 0  9990
2 48965  97.6598 152.2419 0006202 110.6229 249.5685 15.46094525194153
JILIN-1 GAOFEN 3D01     
1 49004U 21061B   24359.44551904  .00047220  00000+0  12308-2 0  9992
2 49004  97.3730  64.8497 0010239 111.1110 249.1231 15.38652754192827
JILIN-1 GAOFEN 3D03     
1 49006U 21061D   24359.61014393  .00029194  00000+0  96940-3 0  9994
2 49006  97.3708  59.0551 0007085 240.3867 119.6669 15.31151033192463
XINGSHIDAI 10           
1 49007U 21061E   24359.56420291  .00030066  00000+0  99145-3 0  9997
2 49007  97.3706  59.0388 0007938 221.0495 139.0150 15.31363284192453
FENGYUN 3E              
1 49008U 21062A   24359.55304020  .00000099  00000+0  67504-4 0  9997
2 49008  98.7387 358.3472 0001488 164.0801 196.0422 14.19825774180009
ISS (NAUKA)             
1 49044U 21066A   24359.52920483  .00022437  00000+0  39760-3 0  9997
2 49044  51.6376  92.3089 0005607   0.6462 359.4534 15.50159510193433
BRO-4                   
1 49066U 21073A   24359.53406161  .00201404  00000+0  17920-2 0  9998
2 49066  97.4285  80.1648 0009866 278.2752  81.7390 15.67812034186157
LEDSAT                  
1 49069U 21073D   24359.46153124  .00048369  00000+0  12409-2 0  9997
2 49069  97.4148  70.7778 0013748 328.8103  31.2325 15.39091564185561
STARLINK-3100           
1 49144U 21082Q   24359.28590617 -.00001260  00000+0 -97869-4 0  9999
2 49144  70.0009 324.8573 0001909 276.9933  83.1009 14.98329175180010
CUTE                    
1 49263U 21088D   24359.44446346  .00055173  00000+0  15847-2 0  9998
2 49263  97.4741  65.8034 0011411 127.8961 232.3316 15.35583640178664
2021-091B               
1 49316U 21091B   24359.56718063  .00008103  00000+0  39239-3 0  9995
2 49316  97.4487 184.3309 0009771  80.4265 279.8073 15.18778917177107
2021-091H               
1 49322U 21091H   24359.56235044  .00070053  00000+0  92625-3 0  9996
2 49322  97.4194 200.5939 0008305  94.1694 266.0510 15.58071683178238
